[{"OBJECT_NAME":"STARLINK-6275","OBJECT_ID":"2023-078F","EPOCH":"2026-03-09T22:18:42.353568","MEAN_MOTION":14.98336233,"ECCENTRICITY":0.00028002,"INCLINATION":70.0016,"RA_OF_ASC_NODE":3.8295,"ARG_OF_PERICENTER":261.6536,"MEAN_ANOMALY":98.4306,"EPHEMERIS_TYPE":0,"CLASSIFICATION_TYPE":"U","NORAD_CAT_ID":56772,"ELEMENT_SET_NO":999,"REV_AT_EPOCH":15222,"BSTAR":-0.00017523289,"MEAN_MOTION_DOT":-2.183e-5,"MEAN_MOTION_DDOT":0},{"OBJECT_NAME":"CZ-6A DEB","OBJECT_ID":"2022-151AEC","EPOCH":"2026-03-09T16:07:43.414464","MEAN_MOTION":15.01082395,"ECCENTRICITY":0.0040922,"INCLINATION":98.632,"RA_OF_ASC_NODE":144.2747,"ARG_OF_PERICENTER":190.1613,"MEAN_ANOMALY":169.8786,"EPHEMERIS_TYPE":0,"CLASSIFICATION_TYPE":"U","NORAD_CAT_ID":56604,"ELEMENT_SET_NO":999,"REV_AT_EPOCH":16341,"BSTAR":0.005850488,"MEAN_MOTION_DOT":0.00076879,"MEAN_MOTION_DDOT":0}]
